# From NK 1615
P/1996 R2 (Lagerkvist),e,2.5990,40.0450,333.4866,3.772674,0.1345025,0.31426771,310.2792,06/11.0/2025,2000,g 11.5,4.0
# From MPC 75703
P/1998 VS24 (LINEAR),e,5.0293,159.0399,244.8829,4.520672,0.1025415,0.24358061,276.0363,06/11.0/2025,2000,g 13.0,2.0
# From NK 731
P/1999 RO28 (LONEOS),e,7.5670,137.8415,231.3525,3.425234,0.1554779,0.67218372,338.0308,06/11.0/2025,2000,g 20.0,2.0
# From MPC 75704
P/1999 XN120 (Catalina),e,5.0298,285.2406,161.5974,4.183225,0.1151959,0.21163798,337.6952,06/11.0/2025,2000,g 13.5,2.0
# From NK 744
P/2000 R2 (LINEAR),e,11.6788,160.2711,176.5814,3.468974,0.1525466,0.53064014,333.4116,06/11.0/2025,2000,g 18.0,4.0
# From MPC 43019
P/2001 H5 (NEAT),e,8.3720,328.6740,224.5857,6.094408,0.0655099,0.59919068,231.6268,06/11.0/2025,2000,g 12.0,4.0
# From MPEC 2023-UR6
P/2002 EJ57 (LINEAR),e,4.9889,330.2282,167.2786,6.455319,0.0600935,0.59390847,153.1029,06/11.0/2025,2000,g 12.5,4.0
# From MPC 75007
C/2002 VQ94 (LINEAR),e,70.6571,35.0983,99.8064,186.7273,0.0003863,0.96382408,2.7271,06/11.0/2025,2000,g  9.5,2.0
# From MPC184407
C/2003 A2 (Gleason),e,8.0702,154.5059,346.4592,5498,0.0000024,0.99793420,0.0000,11/05.0191/2003,2000,g  3.5,4.0
# From MPC 50354
P/2003 F2 (NEAT),e,11.6483,358.9202,192.9315,6.538162,0.0589550,0.53904946,120.0056,06/11.0/2025,2000,g 16.5,2.0
# From MPC105235
P/2003 T12 (SOHO),e,11.0234,174.5763,219.7927,2.584074,0.2372720,0.77017355,81.2110,06/11.0/2025,2000,g 17.0,4.0
# From MPEC 2022-YN2
P/2004 FY140 (LINEAR),e,2.1627,327.2620,254.2417,4.969008,0.0889815,0.19274808,304.7371,06/11.0/2025,2000,g 12.5,2.0
# From MPC 53304
P/2004 R3 (LINEAR-NEAT),e,12.8015,305.1202,37.2228,4.747702,0.0952750,0.25447739,129.9861,06/11.0/2025,2000,g 14.5,4.0
# From MPC 75705
P/2004 V5 (LINEAR-Hill),e,19.3377,47.7415,87.1999,8.041737,0.0432195,0.44867526,326.0178,06/11.0/2025,2000,g  8.0,4.0
# From MPC 75705
P/2004 V5-B (LINEAR-Hill),e,19.3379,47.7418,87.2041,8.042006,0.0432173,0.44869310,325.9775,06/11.0/2025,2000,g  8.0,4.0
# From MPC 54164
P/2005 E1 (Tubbiolo),e,4.2606,335.4979,193.9227,7.070050,0.0524289,0.37728400,32.6044,06/11.0/2025,2000,g 10.0,4.0
# From MPC 79019
P/2005 J1 (McNaught),e,31.7406,268.7998,338.9133,3.575047,0.1458080,0.56936186,355.5235,06/11.0/2025,2000,g 16.5,4.0
# From MPC 74246
P/2005 L1 (McNaught),e,8.5960,127.5927,160.0934,3.926722,0.1266656,0.25303585,160.0856,06/11.0/2025,2000,g  9.5,4.0
# From MPC 75706
P/2005 S2 (Skiff),e,3.1385,161.3337,229.9985,7.984586,0.0436843,0.19849488,302.1216,06/11.0/2025,2000,g  7.5,4.0
# From MPC 73461
P/2005 T3 (Read),e,6.2320,27.6228,7.0821,7.574403,0.0472804,0.17436656,339.4480,06/11.0/2025,2000,g  9.0,4.0
# From MPC 73461
P/2005 T4 (SWAN),e,160.2512,25.8293,41.7979,9.351974,0.0344627,0.93069207,247.2072,06/11.0/2025,2000,g 15.0,4.0
# From MPC 75706
P/2005 T5 (Broughton),e,21.3836,57.0620,304.7803,7.258579,0.0503996,0.55176673,359.8013,06/11.0/2025,2000,g 11.0,4.0
# From MPC 75707
P/2006 HR30 (Siding Spring),e,31.9560,309.7588,117.5110,7.796805,0.0452719,0.84361446,304.9377,06/11.0/2025,2000,g 11.0,4.0
# From MPC 75707
P/2007 C2 (Catalina),e,8.6130,275.2340,180.1198,7.024692,0.0529375,0.47434408,345.0076,06/11.0/2025,2000,g 10.0,4.0
# From MPC 84315
C/2007 D1 (LINEAR),e,41.5134,171.0412,339.7515,1234,0.0000227,0.99291780,0.0000,06/14.0701/2007,2000,g  3.5,4.0
# From MPEC 2024-GJ3
P/2007 K2 (Gibbs),e,7.5948,188.4237,347.0907,7.374593,0.0492149,0.68642907,330.7430,06/11.0/2025,2000,g 14.0,4.0
# From MPC 60925
P/2007 Q2 (Gilmore),e,10.1935,172.2262,162.8489,5.661031,0.0731747,0.66878342,121.3949,06/11.0/2025,2000,g 16.0,4.0
# From MPC 73462
P/2007 S1 (Zhao),e,5.9632,141.3271,245.2737,3.818517,0.1320876,0.33794195,129.2568,06/11.0/2025,2000,g 13.0,4.0
# From MPEC 2024-GJ3
C/2007 S2 (Lemmon),e,16.9161,296.1301,210.1454,12.49447,0.0223166,0.55696053,136.6655,06/11.0/2025,2000,g  6.5,4.0
# From MPC184407
P/2007 SA24 (Lemmon),e,17.1106,233.2402,107.8045,6.224859,0.0634614,0.56893851,58.5271,06/11.0/2025,2000,g 12.6,4.0
# From MPC 61994
P/2007 T2 (Kowalski),e,9.7481,3.3929,359.6676,3.043530,0.1856256,0.78545723,106.0851,06/11.0/2025,2000,g 18.5,4.0
# From MPEC 2024-GJ3
C/2008 E1 (Catalina),e,34.8644,188.9227,270.3599,10.76376,0.0279099,0.55288892,171.2716,06/11.0/2025,2000,g  7.0,4.0
# From MPC 64114
P/2008 O3 (Boattini),e,32.3105,47.6075,341.2020,8.208718,0.0419074,0.69616407,259.9833,06/11.0/2025,2000,g 13.0,4.0
# From MPC 75710
P/2008 Y3 (McNaught),e,38.7791,262.8391,238.1288,8.037300,0.0432552,0.44820372,260.1597,06/11.0/2025,2000,g  8.5,4.0
# From MPC 75710
P/2009 B1 (Boattini),e,22.2596,297.1087,129.0029,6.725384,0.0565104,0.63594352,338.2757,06/11.0/2025,2000,g 13.0,4.0
# From MPC 66466
C/2009 G1 (STEREO),e,108.0345,120.8735,175.5073,452.8302,0.0001023,0.99749192,0.0000,04/17.3175/2009,2000,g  9.0,4.0
# From MPC184407
P/2009 KF37,e,11.3881,111.9437,143.9718,4.112101,0.1181975,0.31056998,333.9079,06/11.0/2025,2000,g 14.9,4.0
# From MPC 75710
P/2009 O3 (Hill),e,16.2523,183.7170,154.4223,7.772353,0.0454857,0.68615450,266.5319,06/11.0/2025,2000,g 12.5,4.0
# From MPC 68902
P/2009 Q5 (McNaught),e,40.9541,160.2067,209.2044,7.425988,0.0487049,0.60932600,279.5780,06/11.0/2025,2000,g 10.0,4.0
# From MPC112389
P/2009 T2 (La Sagra),e,27.5991,216.3132,216.0041,7.708128,0.0460554,0.76747738,259.0798,06/11.0/2025,2000,g 14.0,4.0
# From MPC105235
P/2009 WX51 (Catalina),e,9.5979,31.5224,118.2942,3.082382,0.1821270,0.73967890,303.8917,06/11.0/2025,2000,g 19.0,2.0
# From MPC 74247
P/2009 Y2 (Kowalski),e,29.9731,262.0832,172.2419,6.538093,0.0589559,0.63739864,328.2382,06/11.0/2025,2000,g 13.0,4.0
# From MPC 75008
P/2010 C1 (Scotti),e,9.1157,141.5901,2.9157,7.129266,0.0517770,0.26386770,297.9287,06/11.0/2025,2000,g  9.5,4.0
# From MPC 75008
P/2010 D2 (WISE),e,57.1353,319.8764,120.0143,6.716768,0.0566192,0.45169893,317.0559,06/11.0/2025,2000,g 16.0,4.0
# From MPC 75009
P/2010 E2 (Jarnac),e,15.4260,177.8264,8.2121,8.635203,0.0388414,0.72088721,216.1494,06/11.0/2025,2000,g 14.0,4.0
# From MPC 72851
P/2010 H2 (Vales),e,14.2792,64.1888,128.0515,3.834168,0.1312797,0.19774842,12.2532,06/11.0/2025,2000,g  6.0,4.0
# From MPC 70361
P/2010 H3 (SOHO),e,23.1482,77.1822,26.0717,3.035259,0.1863848,0.98557485,0.0000,05/25.2328/2026,2000,g 20.0,2.0
# From MPEC 2024-GJ3
P/2010 H4 (Scotti),e,2.3178,44.7463,179.0805,6.617917,0.0578925,0.26709779,318.9182,06/11.0/2025,2000,g 10.5,4.0
# From MPC 74637
P/2010 H5 (Scotti),e,14.0527,24.5150,174.9074,7.171880,0.0513162,0.15525332,286.0576,06/11.0/2025,2000,g 13.0,2.0
# From MPC 98558
P/2010 J3 (McMillan),e,13.2265,106.5395,157.4188,8.988007,0.0365771,0.72418445,198.2872,06/11.0/2025,2000,g 11.0,4.0
# From MPC 84315
P/2010 JC81 (WISE),e,38.7685,30.8513,12.5059,8.102780,0.0427320,0.77808057,220.0872,06/11.0/2025,2000,g  9.0,4.0
# From MPC184408
P/2010 KG43,e,13.6502,325.6870,354.3911,5.580506,0.0747642,0.48290859,48.9228,06/11.0/2025,2000,g 12.7,4.0
# From MPEC 2024-H77
A/2010 LN135,e,64.4585,184.8524,181.5726,38790,0.0000001,0.99995496,0.0000,05/25.1409/2011,2000,g 14.0,2.0
# From MPC184408
P/2010 LH155,e,8.8068,221.1195,308.5233,3.744095,0.1360454,0.40598520,8.5677,06/11.0/2025,2000,g 14.3,4.0
# From MPC 74248
P/2010 T2 (PANSTARRS),e,7.8595,57.8165,350.2037,5.588862,0.0745966,0.32574169,35.3074,06/11.0/2025,2000,g 11.5,4.0
# From MPC 82316
P/2010 U1 (Boattini),e,8.2274,280.8068,86.5379,6.486249,0.0596642,0.24837746,332.7994,06/11.0/2025,2000,g  9.5,4.0
# From MPEC 2023-J95
C/2010 U3 (Boattini),e,55.5465,42.9923,88.0839,25167,0.0000002,0.99966468,0.0000,02/28.0418/2019,2000,g  1.0,4.0
# From MPC 79021
P/2010 UH55 (Spacewatch),e,8.0369,232.8269,225.3122,6.648093,0.0574988,0.56469718,297.4819,06/11.0/2025,2000,g 11.0,4.0
# From MPC 84021
P/2011 C2 (Gibbs),e,10.8951,11.9605,160.2809,7.408886,0.0488736,0.27112986,241.2787,06/11.0/2025,2000,g  9.0,4.0
# From MPC 79866
P/2011 FR143 (Lemmon),e,15.9623,190.8477,349.6482,6.882244,0.0545895,0.45256208,287.3259,06/11.0/2025,2000,g 14.0,2.0
# From MPC 82317
P/2011 JB15 (Spacewatch-Boattini),e,19.1256,153.5861,110.6977,7.380342,0.0491574,0.31477339,241.7533,06/11.0/2025,2000,g  9.0,4.0
# From MPC 87913
P/2011 N1 (ASH),e,35.7859,77.6285,330.4943,6.233826,0.0633245,0.54545904,300.9222,06/11.0/2025,2000,g 11.5,4.0
# From MPEC 2022-ED3
P/2011 P1 (McNaught),e,5.6518,4.2585,349.1752,7.461598,0.0483567,0.32636475,262.3371,06/11.0/2025,2000,g  9.0,4.0
# From MPEC 2022-HC2
P/2011 S1 (Gibbs),e,2.6884,218.8973,192.9489,8.596268,0.0391056,0.20098989,154.2133,06/11.0/2025,2000,g  8.0,4.0
# From MPEC 2023-UR6
P/2011 V1 (Boattini),e,7.3829,46.4914,269.6084,3.857497,0.1300905,0.54836933,318.8204,06/11.0/2025,2000,g 15.5,4.0
# From MPC 82718
P/2011 W1 (PANSTARRS),e,3.7161,161.8072,283.0331,4.674355,0.0975262,0.28847216,118.7437,06/11.0/2025,2000,g 11.5,4.0
# From MPC 79342
P/2011 Y2 (Boattini),e,6.3919,309.3201,132.0714,6.228571,0.0634047,0.71120143,306.5374,06/11.0/2025,2000,g 15.0,4.0
# From MPEC 2022-K19
P/2012 B1 (PANSTARRS),e,7.6055,36.2097,161.9188,6.542056,0.0589024,0.41012682,258.0045,06/11.0/2025,2000,g  9.0,4.0
# From MPC 78590
P/2012 C3 (PANSTARRS),e,9.0920,135.3677,344.9542,9.748681,0.0323806,0.63011148,359.9758,10/06.0/2011,2000,g 13.0,4.0
# From MPC 84931
P/2012 F2 (PANSTARRS),e,14.6981,226.9534,33.1594,6.347614,0.0616295,0.54055100,275.1211,06/11.0/2025,2000,g 12.0,4.0
# From MPEC 2022-ED3
P/2012 G1 (PANSTARRS),e,12.1681,283.2371,266.0171,4.162494,0.1160576,0.32954293,199.1469,06/11.0/2025,2000,g 15.0,4.0
# From MPC 80898
P/2012 K3 (Gibbs),e,13.1816,125.8056,172.1391,3.632637,0.1423545,0.42168825,303.0708,06/11.0/2025,2000,g 15.0,4.0
# From MPC184408
C/2012 KA51,e,70.7303,344.8382,93.9915,532.8560,0.0000801,0.99086676,0.0000,11/06.2386/2011,2000,g  8.7,4.0
# From MPC 88326
P/2012 NJ (La Sagra),e,84.3215,315.6947,338.3865,8.467560,0.0400006,0.84649253,189.8610,06/11.0/2025,2000,g 14.5,4.0
# From MPC 81470
P/2012 O1 (McNaught),e,7.4280,91.9402,238.2788,3.543285,0.1477730,0.59356690,338.8516,06/11.0/2025,2000,g 17.5,4.0
# From MPC 80899
